H1 CPF 01  gfz 2022 07 07 00  6881 tandemx   
H2 1003001  6202 36605    2022 07 07 00 59 42 2022 07 12 00 00 42   120 1 1  0 0 0
H9
10 0 59769  12942.000000  0    1210736.807   -208779.982  -6785043.663
10 0 59769  13062.000000  0     477162.518   -758420.829  -6836894.721
10 0 59769  13182.000000  0    -274061.557  -1281938.775  -6769537.537
10 0 59769  13302.000000  0   -1029390.887  -1770077.177  -6584128.066
10 0 59769  13422.000000  0   -1775047.115  -2214420.514  -6283853.618
10 0 59769  13542.000000  0   -2497263.872  -2607537.656  -5873883.609
10 0 59769  13662.000000  0   -3182535.712  -2943105.399  -5361290.008
10 0 59769  13782.000000  0   -3817869.319  -3216012.551  -4754937.952
10 0 59769  13902.000000  0   -4391032.019  -3422441.399  -4065343.291
10 0 59769  14022.000000  0   -4890791.213  -3559923.848  -3304500.226
10 0 59769  14142.000000  0   -5307141.169  -3627371.871  -2485680.563
10 0 59769  14262.000000  0   -5631511.279  -3625080.622  -1623206.131
10 0 59769  14382.000000  0   -5856949.789  -3554703.245   -732198.605
10 0 59769  14502.000000  0   -5978278.743  -3419197.959    171688.791
10 0 59769  14622.000000  0   -5992215.767  -3222748.198   1072552.399
10 0 59769  14742.000000  0   -5897458.317  -2970657.370   1954527.630
10 0 59769  14862.000000  0   -5694726.112  -2669219.612   2802078.110
10 0 59769  14982.000000  0   -5386763.383  -2325571.997   3600276.751
10 0 59769  15102.000000  0   -4978300.366  -1947531.149   4335076.260
10 0 59769  15222.000000  0   -4475973.272  -1543417.124   4993559.528
10 0 59769  15342.000000  0   -3888208.661  -1121872.166   5564165.476
10 0 59769  15462.000000  0   -3225075.117   -691677.476   6036889.928
10 0 59769  15582.000000  0   -2498103.123   -261570.401   6403457.851
10 0 59769  15702.000000  0   -1720076.989    159932.656   6657461.972
10 0 59769  15822.000000  0    -904805.725    564702.748   6794467.601
10 0 59769  15942.000000  0     -66876.708    945153.582   6812085.173
10 0 59769  16062.000000  0     778604.987   1294382.824   6710009.046
10 0 59769  16182.000000  0    1616288.016   1606297.416   6490022.603
10 0 59769  16302.000000  0    2430852.677   1875720.101   6155968.509
10 0 59769  16422.000000  0    3207290.793   2098475.639   5713686.313
10 0 59769  16542.000000  0    3931184.943   2271456.111   5170916.337
10 0 59769  16662.000000  0    4588979.543   2392663.863   4537169.788
10 0 59769  16782.000000  0    5168240.310   2461232.322   3823568.832
10 0 59769  16902.000000  0    5657900.041   2477422.695   3042654.670
10 0 59769  17022.000000  0    6048477.120   2442595.366   2208165.340
10 0 59769  17142.000000  0    6332267.355   2359159.354   1334793.281
10 0 59769  17262.000000  0    6503503.371   2230498.415    437920.588
10 0 59769  17382.000000  0    6558475.141   2060876.479   -466660.193
10 0 59769  17502.000000  0    6495607.679   1855324.777  -1363033.779
10 0 59769  17622.000000  0    6315496.843   1619513.350  -2235448.617
10 0 59769  17742.000000  0    6020904.099   1359610.638  -3068601.233
10 0 59769  17862.000000  0    5616705.163   1082133.986  -3847909.866
10 0 59769  17982.000000  0    5109797.471    793795.965  -4559770.838
10 0 59769  18102.000000  0    4508969.147    501350.685  -5191792.701
10 0 59769  18222.000000  0    3824735.287    211443.329  -5733004.479
10 0 59769  18342.000000  0    3069144.975    -69533.371  -6174036.799
10 0 59769  18462.000000  0    2255562.112   -335573.274  -6507273.651
10 0 59769  18582.000000  0    1398426.498   -581179.425  -6726971.630
10 0 59769  18702.000000  0     512999.486   -801472.861  -6829349.906
10 0 59769  18822.000000  0    -384904.781   -992285.442  -6812648.000
10 0 59769  18942.000000  0   -1279194.932  -1150235.778  -6677151.830
10 0 59769  19062.000000  0   -2153783.977  -1272787.736  -6425190.135
10 0 59769  19182.000000  0   -2992872.480  -1358290.348  -6061097.828
10 0 59769  19302.000000  0   -3781227.464  -1405998.843  -5591149.450
10 0 59769  19422.000000  0   -4504458.043  -1416077.037  -5023463.338
10 0 59769  19542.000000  0   -5149281.074  -1389579.981  -4367872.504
10 0 59769  19662.000000  0   -5703770.908  -1328417.375  -3635765.421
10 0 59769  19782.000000  0   -6157589.897  -1235298.292  -2839897.438
10 0 59769  19902.000000  0   -6502192.964  -1113657.713  -1994173.912
10 0 59769  20022.000000  0   -6731000.742   -967566.364  -1113409.251
10 0 59769  20142.000000  0   -6839537.392   -801625.867   -213065.311
10 0 59769  20262.000000  0   -6825527.209   -620850.243    691026.208
10 0 59769  20382.000000  0   -6688947.425   -430538.459   1582949.473
10 0 59769  20502.000000  0   -6432036.139   -236141.250   2446993.898
10 0 59769  20622.000000  0   -6059254.278    -43124.708   3267939.877
10 0 59769  20742.000000  0   -5577202.298    143165.620   4031334.735
10 0 59769  20862.000000  0   -4994494.172    317636.043   4723751.989
10 0 59769  20982.000000  0   -4321592.928    475568.297   5333028.620
10 0 59769  21102.000000  0   -3570613.145    612733.218   5848476.598
10 0 59769  21222.000000  0   -2755093.942    725491.055   6261067.116
10 0 59769  21342.000000  0   -1889747.489    810876.301   6563583.559
10 0 59769  21462.000000  0    -990187.893    866666.821   6750742.147
10 0 59769  21582.000000  0     -72646.758    891434.847   6819277.386
10 0 59769  21702.000000  0     846319.333    884579.101   6767994.811
10 0 59769  21822.000000  0    1750126.317    846338.152   6597790.459
10 0 59769  21942.000000  0    2622460.807    777784.572   6311636.340
10 0 59769  22062.000000  0    3447574.549    680799.678   5914532.581
10 0 59769  22182.000000  0    4210571.340    558029.420   5413425.031
10 0 59769  22302.000000  0    4897679.662    412822.141   4817089.605
10 0 59769  22422.000000  0    5496507.890    249148.282   4135985.206
10 0 59769  22542.000000  0    5996277.611     71505.434   3382074.701
10 0 59769  22662.000000  0    6388028.268   -115189.602   2568615.874
10 0 59769  22782.000000  0    6664787.015   -305720.807   1709926.218
10 0 59769  22902.000000  0    6821701.162   -494702.327    821127.611
10 0 59769  23022.000000  0    6856129.972   -676711.630    -82126.557
10 0 59769  23142.000000  0    6767691.944   -846425.224   -983936.380
10 0 59769  23262.000000  0    6558265.001   -998752.928  -1868444.382
10 0 59769  23382.000000  0    6231941.681  -1128966.761  -2720122.405
10 0 59769  23502.000000  0    5794940.103  -1232821.540  -3524049.597
10 0 59769  23622.000000  0    5255474.248  -1306663.957  -4266176.097
10 0 59769  23742.000000  0    4623587.317  -1347527.258  -4933566.950
10 0 59769  23862.000000  0    3910953.649  -1353210.231  -5514622.487
10 0 59769  23982.000000  0    3130653.009  -1322339.417  -5999271.955
10 0 59769  24102.000000  0    2296923.623  -1254412.383  -6379137.004
10 0 59769  24222.000000  0    1424899.814  -1149821.050  -6647665.507
10 0 59769  24342.000000  0     530337.756  -1009856.488  -6800233.825
10 0 59769  24462.000000  0    -370665.373   -836694.865  -6834217.977
10 0 59769  24582.000000  0   -1261954.702   -633364.061  -6749033.338
10 0 59769  24702.000000  0   -2127600.689   -403691.886  -6546144.032
10 0 59769  24822.000000  0   -2952177.484   -152236.138  -6229039.347
10 0 59769  24942.000000  0   -3721031.433    115801.788  -5803180.189
10 0 59769  25062.000000  0   -4420540.029    394679.484  -5275915.930
10 0 59769  25182.000000  0   -5038355.082    678230.047  -4656368.329
10 0 59769  25302.000000  0   -5563626.835    959991.170  -3955286.442
10 0 59769  25422.000000  0   -5987204.660   1233345.655  -3184870.015
10 0 59769  25542.000000  0   -6301808.018   1491669.061  -2358564.204
10 0 59769  25662.000000  0   -6502164.241   1728481.151  -1490828.633
10 0 59769  25782.000000  0   -6585109.552   1937598.509   -596884.122
10 0 59769  25902.000000  0   -6549648.728   2113283.541    307559.470
10 0 59769  26022.000000  0   -6396970.667   2250385.832   1206586.591
10 0 59769  26142.000000  0   -6130420.418   2344473.471   2084364.309
10 0 59769  26262.000000  0   -5755427.314   2391950.102   2925430.488
10 0 59769  26382.000000  0   -5279391.298   2390153.970   3714974.383
10 0 59769  26502.000000  0   -4711529.928   2337436.339   4439103.732
10 0 59769  26622.000000  0   -4062691.146   2233218.359   5085091.342
10 0 59769  26742.000000  0   -3345137.958   2078025.145   5641598.093
10 0 59769  26862.000000  0   -2572309.110   1873496.999   6098870.028
10 0 59769  26982.000000  0   -1758559.583   1622376.532   6448905.059
10 0 59769  27102.000000  0    -918888.392   1328472.113   6685586.619
10 0 59769  27222.000000  0     -68659.813    996599.253   6804783.108
10 0 59769  27342.000000  0     776677.198    632500.946   6804415.078
10 0 59769  27462.000000  0    1601868.645    242748.228   6684489.063
10 0 59769  27582.000000  0    2392129.409   -165377.633   6447097.697
10 0 59769  27702.000000  0    3133407.836   -584020.394   6096386.737
10 0 59769  27822.000000  0    3812637.699  -1004898.634   5638487.422
10 0 59769  27942.000000  0    4417972.367  -1419468.311   5081414.754
10 0 59769  28062.000000  0    4938996.448  -1819095.277   4434933.083
10 0 59769  28182.000000  0    5366912.965  -2195233.683   3710390.658
10 0 59769  28302.000000  0    5694701.286  -2539607.797   2920522.860
10 0 59769  28422.000000  0    5917239.702  -2844392.633   2079227.461
10 0 59769  28542.000000  0    6031391.291  -3102388.483   1201317.820
10 0 59769  28662.000000  0    6036051.789  -3307186.285    302256.400
10 0 59769  28782.000000  0    5932154.874  -3453317.832   -602125.660
10 0 59769  28902.000000  0    5722637.438  -3536388.164  -1495916.588
10 0 59769  29022.000000  0    5412362.293  -3553184.979  -2363413.111
10 0 59769  29142.000000  0    5008003.930  -3501764.125  -3189402.342
10 0 59769  29262.000000  0    4517899.642  -3381508.963  -3959432.699
10 0 59769  29382.000000  0    3951869.981  -3193162.542  -4660066.997
99
